ONEWEB-0207             
1 48242U 21031AJ  26115.27633545  .00000148  00000+0  36568-3 0  9990
2 48242  87.8939 300.2555 0001516  99.0905 261.0397 13.14502795241340
ONEWEB-0208             
1 48243U 21031AK  26115.25810282  .00000404  00000+0  10556-2 0  9997
2 48243  87.8928 300.2685 0001506  77.6824 282.4474 13.14497957241351
ONEWEB-0200             
1 48244U 21031AL  26115.22162331 -.00000110  00000+0 -33003-3 0  9999
2 48244  87.8923 300.2628 0001619  89.3554 270.7761 13.14502927241273
ONEWEB-0217             
1 48245U 21031AM  26115.23748296 -.00000124  00000+0 -36887-3 0  9999
2 48245  87.8933 300.2613 0001534  80.7071 279.4232 13.14503053241229
ONEWEB-0211             
1 48767U 21045A   26115.12898928  .00000053  00000+0  10480-3 0  9999
2 48767  87.8954 269.6745 0001720  73.9036 286.2284 13.16194152237469
ONEWEB-0223             
1 48768U 21045B   26115.18131708  .00000133  00000+0  31975-3 0  9993
2 48768  87.8956 269.7582 0001940  84.5453 275.5898 13.15548103237434
ONEWEB-0230             
1 48769U 21045C   26115.15279504 -.00000071  00000+0 -22195-3 0  9995
2 48769  87.8946 269.7824 0001824 101.4190 258.7145 13.15548379237692
ONEWEB-0237             
1 48770U 21045D   26115.14170291 -.00000112  00000+0 -33137-3 0  9993
2 48770  87.8950 269.7859 0001986  90.3126 269.8232 13.15548817237418
ONEWEB-0235             
1 48771U 21045E   26115.11633871  .00000125  00000+0  29908-3 0  9992
2 48771  87.8957 269.7722 0001993  85.1263 275.0095 13.15548688237408
ONEWEB-0242             
1 48772U 21045F   26115.18605337  .00000210  00000+0  52387-3 0  9998
2 48772  87.8959 269.7543 0001953  95.0898 265.0455 13.15548978237458
ONEWEB-0241             
1 48773U 21045G   26115.17339383  .00000235  00000+0  58999-3 0  9995
2 48773  87.8948 269.7812 0001717  83.1431 276.9894 13.15547817237364
ONEWEB-0243             
1 48774U 21045H   26114.97691480 -.00000023  00000+0 -94715-4 0  9996
2 48774  87.8949 269.8317 0002294  92.4152 267.7241 13.15548726237365
ONEWEB-0222             
1 48775U 21045J   26115.18843990  .00000282  00000+0  71417-3 0  9994
2 48775  87.8957 269.7533 0001805  91.6168 268.5169 13.15548164237431
ONEWEB-0244             
1 48776U 21045K   26114.91035750 -.00000109  00000+0 -32321-3 0  9993
2 48776  87.8963 269.8004 0001923  93.5956 266.5395 13.15548147237968
ONEWEB-0247             
1 48777U 21045L   26115.13536658 -.00000001  00000+0 -36708-4 0  9997
2 48777  87.8946 269.7949 0002478  83.9211 276.2202 13.15549108237435
ONEWEB-0245             
1 48778U 21045M   26115.13060618  .00000061  00000+0  12686-3 0  9998
2 48778  87.8956 269.7703 0001640  89.3240 270.8078 13.15547928237403
