[{"OBJECT_NAME":"ONEWEB-0207","OBJECT_ID":"2021-031AJ","EPOCH":"2026-04-25T06:37:55.382880","MEAN_MOTION":13.14502795,"ECCENTRICITY":0.0001516,"INCLINATION":87.8939,"RA_OF_ASC_NODE":300.2555,"ARG_OF_PERICENTER":99.0905,"MEAN_ANOMALY":261.0397,"EPHEMERIS_TYPE":0,"CLASSIFICATION_TYPE":"U","NORAD_CAT_ID":48242,"ELEMENT_SET_NO":999,"REV_AT_EPOCH":24134,"BSTAR":0.00036568,"MEAN_MOTION_DOT":1.48e-06,"MEAN_MOTION_DDOT":0.0},{"OBJECT_NAME":"ONEWEB-0208","OBJECT_ID":"2021-031AK","EPOCH":"2026-04-25T06:11:40.083648","MEAN_MOTION":13.14497957,"ECCENTRICITY":0.0001506,"INCLINATION":87.8928,"RA_OF_ASC_NODE":300.2685,"ARG_OF_PERICENTER":77.6824,"MEAN_ANOMALY":282.4474,"EPHEMERIS_TYPE":0,"CLASSIFICATION_TYPE":"U","NORAD_CAT_ID":48243,"ELEMENT_SET_NO":999,"REV_AT_EPOCH":24135,"BSTAR":0.0010556,"MEAN_MOTION_DOT":4.04e-06,"MEAN_MOTION_DDOT":0.0},{"OBJECT_NAME":"ONEWEB-0200","OBJECT_ID":"2021-031AL","EPOCH":"2026-04-25T05:19:08.253984","MEAN_MOTION":13.14502927,"ECCENTRICITY":0.0001619,"INCLINATION":87.8923,"RA_OF_ASC_NODE":300.2628,"ARG_OF_PERICENTER":89.3554,"MEAN_ANOMALY":270.7761,"EPHEMERIS_TYPE":0,"CLASSIFICATION_TYPE":"U","NORAD_CAT_ID":48244,"ELEMENT_SET_NO":999,"REV_AT_EPOCH":24127,"BSTAR":-0.00033003,"MEAN_MOTION_DOT":-1.1e-06,"MEAN_MOTION_DDOT":0.0},{"OBJECT_NAME":"ONEWEB-0217","OBJECT_ID":"2021-031AM","EPOCH":"2026-04-25T05:41:58.527744","MEAN_MOTION":13.14503053,"ECCENTRICITY":0.0001534,"INCLINATION":87.8933,"RA_OF_ASC_NODE":300.2613,"ARG_OF_PERICENTER":80.7071,"MEAN_ANOMALY":279.4232,"EPHEMERIS_TYPE":0,"CLASSIFICATION_TYPE":"U","NORAD_CAT_ID":48245,"ELEMENT_SET_NO":999,"REV_AT_EPOCH":24122,"BSTAR":-0.00036887,"MEAN_MOTION_DOT":-1.24e-06,"MEAN_MOTION_DDOT":0.0},{"OBJECT_NAME":"ONEWEB-0211","OBJECT_ID":"2021-045A","EPOCH":"2026-04-25T03:05:44.673792","MEAN_MOTION":13.16194152,"ECCENTRICITY":0.000172,"INCLINATION":87.8954,"RA_OF_ASC_NODE":269.6745,"ARG_OF_PERICENTER":73.9036,"MEAN_ANOMALY":286.2284,"EPHEMERIS_TYPE":0,"CLASSIFICATION_TYPE":"U","NORAD_CAT_ID":48767,"ELEMENT_SET_NO":999,"REV_AT_EPOCH":23746,"BSTAR":0.00010480000000000001,"MEAN_MOTION_DOT":5.3e-07,"MEAN_MOTION_DDOT":0.0},{"OBJECT_NAME":"ONEWEB-0223","OBJECT_ID":"2021-045B","EPOCH":"2026-04-25T04:21:05.795712","MEAN_MOTION":13.15548103,"ECCENTRICITY":0.000194,"INCLINATION":87.8956,"RA_OF_ASC_NODE":269.7582,"ARG_OF_PERICENTER":84.5453,"MEAN_ANOMALY":275.5898,"EPHEMERIS_TYPE":0,"CLASSIFICATION_TYPE":"U","NORAD_CAT_ID":48768,"ELEMENT_SET_NO":999,"REV_AT_EPOCH":23743,"BSTAR":0.00031975,"MEAN_MOTION_DOT":1.33e-06,"MEAN_MOTION_DDOT":0.0},{"OBJECT_NAME":"ONEWEB-0230","OBJECT_ID":"2021-045C","EPOCH":"2026-04-25T03:40:01.491456","MEAN_MOTION":13.15548379,"ECCENTRICITY":0.0001824,"INCLINATION":87.8946,"RA_OF_ASC_NODE":269.7824,"ARG_OF_PERICENTER":101.419,"MEAN_ANOMALY":258.7145,"EPHEMERIS_TYPE":0,"CLASSIFICATION_TYPE":"U","NORAD_CAT_ID":48769,"ELEMENT_SET_NO":999,"REV_AT_EPOCH":23769,"BSTAR":-0.00022195,"MEAN_MOTION_DOT":-7.1e-07,"MEAN_MOTION_DDOT":0.0},{"OBJECT_NAME":"ONEWEB-0237","OBJECT_ID":"2021-045D","EPOCH":"2026-04-25T03:24:03.131424","MEAN_MOTION":13.15548817,"ECCENTRICITY":0.0001986,"INCLINATION":87.895,"RA_OF_ASC_NODE":269.7859,"ARG_OF_PERICENTER":90.3126,"MEAN_ANOMALY":269.8232,"EPHEMERIS_TYPE":0,"CLASSIFICATION_TYPE":"U","NORAD_CAT_ID":48770,"ELEMENT_SET_NO":999,"REV_AT_EPOCH":23741,"BSTAR":-0.00033137,"MEAN_MOTION_DOT":-1.12e-06,"MEAN_MOTION_DDOT":0.0},{"OBJECT_NAME":"ONEWEB-0235","OBJECT_ID":"2021-045E","EPOCH":"2026-04-25T02:47:31.664544","MEAN_MOTION":13.15548688,"ECCENTRICITY":0.0001993,"INCLINATION":87.8957,"RA_OF_ASC_NODE":269.7722,"ARG_OF_PERICENTER":85.1263,"MEAN_ANOMALY":275.0095,"EPHEMERIS_TYPE":0,"CLASSIFICATION_TYPE":"U","NORAD_CAT_ID":48771,"ELEMENT_SET_NO":999,"REV_AT_EPOCH":23740,"BSTAR":0.00029908,"MEAN_MOTION_DOT":1.25e-06,"MEAN_MOTION_DDOT":0.0},{"OBJECT_NAME":"ONEWEB-0242","OBJECT_ID":"2021-045F","EPOCH":"2026-04-25T04:27:55.011168","MEAN_MOTION":13.15548978,"ECCENTRICITY":0.0001953,"INCLINATION":87.8959,"RA_OF_ASC_NODE":269.7543,"ARG_OF_PERICENTER":95.0898,"MEAN_ANOMALY":265.0455,"EPHEMERIS_TYPE":0,"CLASSIFICATION_TYPE":"U","NORAD_CAT_ID":48772,"ELEMENT_SET_NO":999,"REV_AT_EPOCH":23745,"BSTAR":0.00052387,"MEAN_MOTION_DOT":2.1e-06,"MEAN_MOTION_DDOT":0.0},{"OBJECT_NAME":"ONEWEB-0241","OBJECT_ID":"2021-045G","EPOCH":"2026-04-25T04:09:41.226912","MEAN_MOTION":13.15547817,"ECCENTRICITY":0.0001717,"INCLINATION":87.8948,"RA_OF_ASC_NODE":269.7812,"ARG_OF_PERICENTER":83.1431,"MEAN_ANOMALY":276.9894,"EPHEMERIS_TYPE":0,"CLASSIFICATION_TYPE":"U","NORAD_CAT_ID":48773,"ELEMENT_SET_NO":999,"REV_AT_EPOCH":23736,"BSTAR":0.00058999,"MEAN_MOTION_DOT":2.35e-06,"MEAN_MOTION_DDOT":0.0},{"OBJECT_NAME":"ONEWEB-0243","OBJECT_ID":"2021-045H","EPOCH":"2026-04-24T23:26:45.438720","MEAN_MOTION":13.15548726,"ECCENTRICITY":0.0002294,"INCLINATION":87.8949,"RA_OF_ASC_NODE":269.8317,"ARG_OF_PERICENTER":92.4152,"MEAN_ANOMALY":267.7241,"EPHEMERIS_TYPE":0,"CLASSIFICATION_TYPE":"U","NORAD_CAT_ID":48774,"ELEMENT_SET_NO":999,"REV_AT_EPOCH":23736,"BSTAR":-9.4715e-05,"MEAN_MOTION_DOT":-2.3e-07,"MEAN_MOTION_DDOT":0.0},{"OBJECT_NAME":"ONEWEB-0222","OBJECT_ID":"2021-045J","EPOCH":"2026-04-25T04:31:21.207360","MEAN_MOTION":13.15548164,"ECCENTRICITY":0.0001805,"INCLINATION":87.8957,"RA_OF_ASC_NODE":269.7533,"ARG_OF_PERICENTER":91.6168,"MEAN_ANOMALY":268.5169,"EPHEMERIS_TYPE":0,"CLASSIFICATION_TYPE":"U","NORAD_CAT_ID":48775,"ELEMENT_SET_NO":999,"REV_AT_EPOCH":23743,"BSTAR":0.00071417,"MEAN_MOTION_DOT":2.82e-06,"MEAN_MOTION_DDOT":0.0},{"OBJECT_NAME":"ONEWEB-0244","OBJECT_ID":"2021-045K","EPOCH":"2026-04-24T21:50:54.888000","MEAN_MOTION":13.15548147,"ECCENTRICITY":0.0001923,"INCLINATION":87.8963,"RA_OF_ASC_NODE":269.8004,"ARG_OF_PERICENTER":93.5956,"MEAN_ANOMALY":266.5395,"EPHEMERIS_TYPE":0,"CLASSIFICATION_TYPE":"U","NORAD_CAT_ID":48776,"ELEMENT_SET_NO":999,"REV_AT_EPOCH":23796,"BSTAR":-0.00032321,"MEAN_MOTION_DOT":-1.09e-06,"MEAN_MOTION_DDOT":0.0},{"OBJECT_NAME":"ONEWEB-0247","OBJECT_ID":"2021-045L","EPOCH":"2026-04-25T03:14:55.672512","MEAN_MOTION":13.15549108,"ECCENTRICITY":0.0002478,"INCLINATION":87.8946,"RA_OF_ASC_NODE":269.7949,"ARG_OF_PERICENTER":83.9211,"MEAN_ANOMALY":276.2202,"EPHEMERIS_TYPE":0,"CLASSIFICATION_TYPE":"U","NORAD_CAT_ID":48777,"ELEMENT_SET_NO":999,"REV_AT_EPOCH":23743,"BSTAR":-3.6708e-05,"MEAN_MOTION_DOT":-1e-08,"MEAN_MOTION_DDOT":0.0},{"OBJECT_NAME":"ONEWEB-0245","OBJECT_ID":"2021-045M","EPOCH":"2026-04-25T03:08:04.373952","MEAN_MOTION":13.15547928,"ECCENTRICITY":0.000164,"INCLINATION":87.8956,"RA_OF_ASC_NODE":269.7703,"ARG_OF_PERICENTER":89.324,"MEAN_ANOMALY":270.8078,"EPHEMERIS_TYPE":0,"CLASSIFICATION_TYPE":"U","NORAD_CAT_ID":48778,"ELEMENT_SET_NO":999,"REV_AT_EPOCH":23740,"BSTAR":0.00012686000000000002,"MEAN_MOTION_DOT":6.1e-07,"MEAN_MOTION_DDOT":0.0}]